OBJECT_NAME,OBJECT_ID,EPOCH,MEAN_MOTION,ECCENTRICITY,INCLINATION,RA_OF_ASC_NODE,ARG_OF_PERICENTER,MEAN_ANOMALY,EPHEMERIS_TYPE,CLASSIFICATION_TYPE,NORAD_CAT_ID,ELEMENT_SET_NO,REV_AT_EPOCH,BSTAR,MEAN_MOTION_DOT,MEAN_MOTION_DDOT
STARLINK-37765,2026-122J,2026-06-16T20:00:01.999008,15.80796897,.0000652,97.2844,197.2913,87.9617,279.6627,0,U,69337,999,334,.63363E-4,.12001E-3,0
STARLINK-37788,2026-122K,2026-06-16T20:00:01.999008,15.73560335,.0001328,97.2841,197.2846,80.1791,273.9356,0,U,69338,999,329,-.20925E-1,-.2487758E-1,0
STARLINK-37743,2026-122L,2026-06-16T20:00:30.650112,15.80862397,.000087,97.2836,197.2872,74.7108,285.4257,0,U,69339,999,210,.76859E-3,.149953E-2,0
STARLINK-37780,2026-122M,2026-06-16T20:00:01.999008,15.80759193,.0001136,97.2838,197.2909,73.6366,290.2253,0,U,69340,999,334,.1599E-3,.30515E-3,0
STARLINK-37781,2026-122N,2026-06-16T20:00:01.999008,15.73751138,.0001399,97.2838,197.2764,83.0790,252.8515,0,U,69341,999,329,-.20588E-1,-.2471114E-1,0
STARLINK-37782,2026-122P,2026-06-16T20:00:01.999008,15.80696280,.0001579,97.2852,197.3109,115.8633,294.1663,0,U,69342,999,329,.37172E-3,.71255E-3,0
STARLINK-37776,2026-122Q,2026-06-16T20:00:01.999008,15.80750498,.0001246,97.2850,197.3121,88.4483,327.0817,0,U,69343,999,329,.36242E-3,.69625E-3,0
STARLINK-37786,2026-122R,2026-06-16T20:00:01.999008,15.79541416,.0001407,97.2851,197.3186,74.6552,353.4608,0,U,69344,999,329,-.16551E-1,-.2555823E-1,0
STARLINK-37785,2026-122S,2026-06-16T20:00:01.999008,15.80817666,.0001215,97.2850,197.3201,80.0418,351.5699,0,U,69345,999,329,-.1135E-3,-.2183E-3,0
STARLINK-37773,2026-122T,2026-06-16T20:00:01.999008,15.80754233,.0001343,97.2845,197.3163,67.2050,357.6199,0,U,69346,999,334,.31249E-3,.59957E-3,0
STARLINK-37744,2026-122U,2026-06-16T20:00:01.999008,15.71553384,.0001412,97.2847,197.3069,70.6192,334.0952,0,U,69347,999,329,-.22815E-1,-.2546848E-1,0
STARLINK-37775,2026-122V,2026-06-16T20:00:01.999008,15.80995236,.0000969,97.2846,197.3163,86.9500,335.6000,0,U,69348,999,329,-.18134E-2,-.337165E-2,0
STARLINK-37777,2026-122W,2026-06-16T20:00:01.999008,15.80727496,.0000984,97.2839,197.3173,70.1305,353.2033,0,U,69349,999,329,.51777E-3,.9977E-3,0
STARLINK-37779,2026-122X,2026-06-16T20:00:01.999008,15.80810870,.0000602,97.2845,197.3193,73.0892,357.1044,0,U,69350,999,329,-.50887E-4,-.9875E-4,0
STARLINK-37549,2026-122Y,2026-06-16T20:00:01.999008,15.77903242,.0001566,97.2844,197.3115,123.7918,288.0516,0,U,69351,999,329,-.17448E-1,-.2509665E-1,0
STARLINK-37778,2026-122Z,2026-06-16T20:00:01.999008,15.79851222,.0001773,97.2844,197.3223,70.4427,6.7255,0,U,69352,999,329,-.16151E-1,-.253444E-1,0
STARLINK-37651,2026-123A,2026-06-16T20:00:01.999008,15.80882248,.0001172,53.1576,243.5813,99.5228,131.5631,0,U,69353,999,309,-.16487E-3,-.33128E-3,0
STARLINK-37652,2026-123B,2026-06-16T20:00:01.999008,15.80894194,.0001158,53.1575,243.5951,87.3004,137.2915,0,U,69354,999,309,-.31026E-3,-.61559E-3,0
STARLINK-37593,2026-123C,2026-06-16T20:00:01.999008,15.80880137,.0001175,53.1576,243.5844,74.8970,154.6578,0,U,69355,999,314,-.20701E-3,-.41375E-3,0
STARLINK-37597,2026-123D,2026-06-16T20:00:01.999008,15.80886728,.0001152,53.1576,243.5653,93.0528,145.7704,0,U,69356,999,314,-.21671E-3,-.43283E-3,0
STARLINK-37598,2026-123E,2026-06-16T20:00:01.999008,15.80889099,.0000842,53.1578,243.5403,79.9659,170.8022,0,U,69357,999,314,-.2416E-3,-.4815E-3,0
STARLINK-37602,2026-123F,2026-06-16T20:00:01.999008,15.75269743,.0001145,53.1585,243.5929,65.9583,159.3384,0,U,69358,999,314,-.60321E-3,-.92226E-3,0
STARLINK-37600,2026-123G,2026-06-16T20:00:01.999008,15.75265689,.0001046,53.1582,243.5438,84.7029,164.5094,0,U,69359,999,314,-.42542E-3,-.65423E-3,0
STARLINK-37599,2026-123H,2026-06-16T20:00:01.999008,15.80882485,.0001019,53.1571,243.4188,97.4123,212.4275,0,U,69360,999,309,-.20502E-3,-.40989E-3,0
STARLINK-37039,2026-123J,2026-06-16T20:00:01.999008,15.80893230,.0001141,53.1579,243.4756,97.9400,183.8491,0,U,69361,999,309,-.30423E-3,-.60382E-3,0
STARLINK-37040,2026-123K,2026-06-16T20:00:01.999008,15.80877122,.0000847,53.1584,243.2485,58.8179,332.8436,0,U,69362,999,309,-.14447E-3,-.29121E-3,0
STARLINK-37582,2026-123L,2026-06-16T20:00:01.999008,15.76090507,.0001093,53.1585,243.4380,76.0822,224.1779,0,U,69363,999,309,-.81455E-2,-.1155378E-1,0
STARLINK-37309,2026-123M,2026-06-16T20:00:01.999008,15.80871868,.0000851,53.1587,243.1289,56.0002,33.6663,0,U,69364,999,323,.52545E-4,.9683E-4,0
STARLINK-37436,2026-123N,2026-06-16T20:00:01.999008,15.80843504,.0001091,53.1587,243.0922,80.7271,26.5564,0,U,69365,999,323,.18093E-3,.35107E-3,0
STARLINK-37581,2026-123P,2026-06-16T20:00:01.999008,15.80888764,.000141,53.1587,243.1364,62.2917,23.5777,0,U,69366,999,308,-.16087E-3,-.32354E-3,0
