STARLINK-37765          
1 69337U 26122J   26167.83335647  .00012001  00000+0  63363-4 0  9990
2 69337  97.2844 197.2913 0000652  87.9617 279.6627 15.80796897  3346
STARLINK-37788          
1 69338U 26122K   26167.83335647 -.02487758  00000+0 -20925-1 0  9994
2 69338  97.2841 197.2846 0001328  80.1791 273.9356 15.73560335  3296
STARLINK-37743          
1 69339U 26122L   26167.83368808  .00149953  00000+0  76859-3 0  9997
2 69339  97.2836 197.2872 0000870  74.7108 285.4257 15.80862397  2100
STARLINK-37780          
1 69340U 26122M   26167.83335647  .00030515  00000+0  15990-3 0  9996
2 69340  97.2838 197.2909 0001136  73.6366 290.2253 15.80759193  3341
STARLINK-37781          
1 69341U 26122N   26167.83335647 -.02471114  00000+0 -20588-1 0  9992
2 69341  97.2838 197.2764 0001399  83.0790 252.8515 15.73751138  3290
STARLINK-37782          
1 69342U 26122P   26167.83335647  .00071255  00000+0  37172-3 0  9990
2 69342  97.2852 197.3109 0001579 115.8633 294.1663 15.80696280  3298
STARLINK-37776          
1 69343U 26122Q   26167.83335647  .00069625  00000+0  36242-3 0  9996
2 69343  97.2850 197.3121 0001246  88.4483 327.0817 15.80750498  3299
STARLINK-37786          
1 69344U 26122R   26167.83335647 -.02555823  00000+0 -16551-1 0  9990
2 69344  97.2851 197.3186 0001407  74.6552 353.4608 15.79541416  3292
STARLINK-37785          
1 69345U 26122S   26167.83335647 -.00021830  00000+0 -11350-3 0  9999
2 69345  97.2850 197.3201 0001215  80.0418 351.5699 15.80817666  3293
STARLINK-37773          
1 69346U 26122T   26167.83335647  .00059957  00000+0  31249-3 0  9998
2 69346  97.2845 197.3163 0001343  67.2050 357.6199 15.80754233  3344
STARLINK-37744          
1 69347U 26122U   26167.83335647 -.02546848  00000+0 -22815-1 0  9990
2 69347  97.2847 197.3069 0001412  70.6192 334.0952 15.71553384  3298
STARLINK-37775          
1 69348U 26122V   26167.83335647 -.00337165  00000+0 -18134-2 0  9999
2 69348  97.2846 197.3163 0000969  86.9500 335.6000 15.80995236  3299
STARLINK-37777          
1 69349U 26122W   26167.83335647  .00099770  00000+0  51777-3 0  9996
2 69349  97.2839 197.3173 0000984  70.1305 353.2033 15.80727496  3291
STARLINK-37779          
1 69350U 26122X   26167.83335647 -.00009875  00000+0 -50887-4 0  9999
2 69350  97.2845 197.3193 0000602  73.0892 357.1044 15.80810870  3296
STARLINK-37549          
1 69351U 26122Y   26167.83335647 -.02509665  00000+0 -17448-1 0  9997
2 69351  97.2844 197.3115 0001566 123.7918 288.0516 15.77903242  3290
STARLINK-37778          
1 69352U 26122Z   26167.83335647 -.02534440  00000+0 -16151-1 0  9997
2 69352  97.2844 197.3223 0001773  70.4427   6.7255 15.79851222  3291
STARLINK-37651          
1 69353U 26123A   26167.83335647 -.00033128  00000+0 -16487-3 0  9998
2 69353  53.1576 243.5813 0001172  99.5228 131.5631 15.80882248  3095
STARLINK-37652          
1 69354U 26123B   26167.83335647 -.00061559  00000+0 -31026-3 0  9994
2 69354  53.1575 243.5951 0001158  87.3004 137.2915 15.80894194  3090
STARLINK-37593          
1 69355U 26123C   26167.83335647 -.00041375  00000+0 -20701-3 0  9997
2 69355  53.1576 243.5844 0001175  74.8970 154.6578 15.80880137  3141
STARLINK-37597          
1 69356U 26123D   26167.83335647 -.00043283  00000+0 -21671-3 0  9995
2 69356  53.1576 243.5653 0001152  93.0528 145.7704 15.80886728  3141
STARLINK-37598          
1 69357U 26123E   26167.83335647 -.00048150  00000+0 -24160-3 0  9990
2 69357  53.1578 243.5403 0000842  79.9659 170.8022 15.80889099  3146
STARLINK-37602          
1 69358U 26123F   26167.83335647 -.00092226  00000+0 -60321-3 0  9993
2 69358  53.1585 243.5929 0001145  65.9583 159.3384 15.75269743  3141
STARLINK-37600          
1 69359U 26123G   26167.83335647 -.00065423  00000+0 -42542-3 0  9998
2 69359  53.1582 243.5438 0001046  84.7029 164.5094 15.75265689  3149
STARLINK-37599          
1 69360U 26123H   26167.83335647 -.00040989  00000+0 -20502-3 0  9992
2 69360  53.1571 243.4188 0001019  97.4123 212.4275 15.80882485  3099
STARLINK-37039          
1 69361U 26123J   26167.83335647 -.00060382  00000+0 -30423-3 0  9995
2 69361  53.1579 243.4756 0001141  97.9400 183.8491 15.80893230  3099
STARLINK-37040          
1 69362U 26123K   26167.83335647 -.00029121  00000+0 -14447-3 0  9990
2 69362  53.1584 243.2485 0000847  58.8179 332.8436 15.80877122  3091
STARLINK-37582          
1 69363U 26123L   26167.83335647 -.01155378  00000+0 -81455-2 0  9998
2 69363  53.1585 243.4380 0001093  76.0822 224.1779 15.76090507  3092
STARLINK-37309          
1 69364U 26123M   26167.83335647  .00009683  00000+0  52545-4 0  9993
2 69364  53.1587 243.1289 0000851  56.0002  33.6663 15.80871868  3232
STARLINK-37436          
1 69365U 26123N   26167.83335647  .00035107  00000+0  18093-3 0  9993
2 69365  53.1587 243.0922 0001091  80.7271  26.5564 15.80843504  3232
STARLINK-37581          
1 69366U 26123P   26167.83335647 -.00032354  00000+0 -16087-3 0  9998
2 69366  53.1587 243.1364 0001410  62.2917  23.5777 15.80888764  3084
